0 DELTA 1 DEB
1 37647U 78026JJ  13284.35609402  .00000346  00000-0  39031-3 0  1339
2 37647 098.7752 324.3063 0243399 309.1319 048.8516 13.64987414524576
0 DELTA 1 DEB
1 37647U 78026JJ  13287.36133746  .00000370  00000-0  41341-3 0  1341
2 37647 098.7735 327.0216 0244931 301.3514 056.3962 13.64990739524989
0 DELTA 1 DEB
1 37647U 78026JJ  13288.90060911  .00000396  00000-0  44170-3 0  1357
2 37647 098.7743 328.4154 0242748 297.2136 060.4680 13.64992861525196
0 DELTA 1 DEB
1 37647U 78026JJ  13291.90585419  .00000410  00000-0  45567-3 0  1365
2 37647 098.7751 331.1358 0242347 289.3349 068.1873 13.64996001525600
0 DELTA 1 DEB
1 37647U 78026JJ  13294.91110387  .00000427  00000-0  47342-3 0  1379
2 37647 098.7747 333.8561 0241951 281.4492 075.9808 13.64999471526016
